82P/Gehrels,e,1.1285,239.3099,226.7621,4.135986,0.1171751,0.12169763,109.7300,01/17.0/2021,2000,g  5.0,8.0
# From MPEC 2020-SI8
84P/Giclas,e,7.5522,108.1749,281.5698,3.548643,0.1474384,0.51563165,33.4929,01/17.0/2021,2000,g  9.5,8.0
# From MPC109147
86P/Wild,e,15.4740,72.3657,179.3550,3.603174,0.1441041,0.37252732,304.3100,01/17.0/2021,2000,g 11.0,6.0
# From MPEC 2020-SI8
87P/Bus,e,2.6034,181.8512,25.0100,3.440349,0.1544544,0.38954860,39.0046,01/17.0/2021,2000,g  7.2,10.0
# From MPEC 2019-JE2
88P/Howell,e,4.3837,56.6805,235.9037,3.105380,0.1801075,0.56429425,20.2438,01/17.0/2021,2000,g 11.0,6.0
# From MPC100283
89P/Russell,e,12.0696,41.3940,250.3144,3.753973,0.1355087,0.40864837,202.3051,01/17.0/2021,2000,g 11.5,6.0
# From MPC107051
90P/Gehrels,e,9.6444,13.2080,29.0821,6.053689,0.0661719,0.50989373,86.5468,01/17.0/2021,2000,g  8.5,6.0
# From MPC105241
91P/Russell,e,14.0909,247.8274,354.8144,3.891147,0.1284067,0.33073748,8.8045,01/17.0/2021,2000,g  7.5,6.0
# From MPEC 2014-J58
92P/Sanguin,e,19.4893,181.3754,163.7345,5.344821,0.0797635,0.66075797,171.1960,01/17.0/2021,2000,g 12.0,6.0
# From NK 2707
93P/Lovas,e,12.2029,339.6403,74.8290,4.383519,0.1073914,0.61234620,152.3015,01/17.0/2021,2000,g  9.0,4.0
# From MPEC 2020-W26
94P/Russell,e,6.1879,70.8598,92.4779,3.507204,0.1500592,0.36479348,231.7538,01/17.0/2021,2000,g  9.0,6.0
# From MPC 75717
95P/Chiron,e,6.9340,209.2620,339.7587,13.69507,0.0194472,0.37781872,177.4066,01/17.0/2021,2000,g  6.5,2.0
# From MPEC 2017-T14
96P/Machholz,e,57.7122,94.0467,14.7196,3.027709,0.1870823,0.96160925,220.7277,01/17.0/2021,2000,g  9.0,4.0
# From MPC 77020
97P/Metcalf-Brewington,e,17.9321,184.1049,229.7776,4.771549,0.0945616,0.46102308,322.7512,01/17.0/2021,2000,g  5.5,6.0
# From MPEC 2013-H38
98P/Takamizawa,e,10.5614,114.7115,157.9208,3.799521,0.1330794,0.56231007,1.6063,01/17.0/2021,2000,g  9.0,8.0
# From MPEC 2021-AJ0
99P/Kowal,e,4.3384,28.1115,174.9545,6.111411,0.0652367,0.23000590,330.5882,01/17.0/2021,2000,g  4.5,6.0
# From MPEC 2013-O31
100P/Hartley,e,25.5671,37.7072,181.9971,3.432072,0.1550135,0.41242813,271.4948,01/17.0/2021,2000,g  9.0,4.0
# From MPC115887
101P/Chernykh,e,5.0528,116.2308,277.6985,5.801494,0.0705333,0.59583157,26.1283,01/17.0/2021,2000,g 12.0,4.8
# From MPC 86232
102P/Shoemaker,e,25.8846,339.3657,20.5381,3.813382,0.1323545,0.45719624,359.2868,01/17.0/2021,2000,g  6.5,8.0
# From MPEC 2018-HA5
103P/Hartley,e,13.5977,219.7287,181.2867,3.476340,0.1520620,0.69308875,208.0820,01/17.0/2021,2000,g  8.5,8.0
# From MPC100283
104P/Kowal,e,5.7175,207.5800,226.9510,3.208874,0.1714649,0.66612384,298.4595,01/17.0/2021,2000,g 16.0,4.0
# From MPC109147
105P/Singer Brewster,e,9.1717,192.4163,46.4807,3.466948,0.1526803,0.40966612,136.0585,01/17.0/2021,2000,g 11.5,6.0
# From MPC 92276
106P/Schuster,e,19.5357,48.9074,353.6332,3.764620,0.1349343,0.59394959,331.1605,01/17.0/2021,2000,g 14.0,4.8
# From MPEC 2015-M77
107P/Wilson-Harrington,e,2.7984,266.8029,95.3890,2.625502,0.2316784,0.63143531,224.5245,01/17.0/2021,2000,g  9.0,4.0
# From MPC 89313
108P/Ciffreo,e,11.4367,50.3221,354.3616,3.741531,0.1361852,0.55625420,327.8587,01/17.0/2021,2000,g  8.0,12.0
# From  105, 420
109P/Swift-Tuttle,e,113.9805,139.0444,152.8941,26.12789,0.0073798,0.96297900,75.8200,01/17.0/2021,2000,g  4.0,6.0
# From MPEC 2020-W26
110P/Hartley,e,11.7073,287.5335,167.4578,3.600800,0.1442466,0.31799803,320.4246,01/17.0/2021,2000,g  1.0,12.0
# From MPC 75718
111P/Helin-Roman-Crockett,e,4.2272,89.7662,1.0439,4.146164,0.1167439,0.10577811,342.4884,01/17.0/2021,2000,g  5.0,8.0
# From MPC118097
112P/Urata-Niijima,e,24.1926,31.8403,21.4928,3.525988,0.1488617,0.58981623,51.2135,01/17.0/2021,2000,g 14.0,6.0
# From MPEC 2015-E14
113P/Spitaler,e,5.3028,306.7175,115.3095,3.704072,0.1382563,0.42249181,290.9916,01/17.0/2021,2000,g 13.5,4.0
# From MPEC 2019-TG9
114P/Wiseman-Skiff,e,18.2724,271.0553,172.7857,3.546037,0.1476010,0.55471930,54.4583,01/17.0/2021,2000,g 11.5,6.0
# From MPEC 2020-SI8
115P/Maury,e,11.6770,176.0094,120.9899,4.273842,0.1115517,0.51875765,19.1130,01/17.0/2021,2000,g 10.5,6.0
# From MPC106348
116P/Wild,e,3.6035,20.9896,173.3613,3.489273,0.1512174,0.37070732,277.4280,01/17.0/2021,2000,g  2.5,10.0
# From MPEC 2015-S97
117P/Helin-Roman-Alu,e,8.7020,58.8471,222.8023,4.085613,0.1193488,0.25575904,296.0228,01/17.0/2021,2000,g  9.0,4.0
# From MPC 95735
118P/Shoemaker-Levy,e,10.0176,142.1745,313.8606,3.374090,0.1590264,0.45688049,253.1941,01/17.0/2021,2000,g 12.0,4.0
# From MPC 84628
119P/Parker-Hartley,e,7.4304,104.8003,321.4417,3.825285,0.1317372,0.39215808,284.9980,01/17.0/2021,2000,g  3.5,8.0
# From MPEC 2020-SI8
120P/Mueller,e,8.4898,358.6740,36.5434,3.961791,0.1249875,0.37454717,346.2399,01/17.0/2021,2000,g 12.0,4.0
# From MPEC 2020-SI8
121P/Shoemaker-Holt,e,20.1631,94.1334,11.3125,4.585518,0.1003741,0.18538010,270.5502,01/17.0/2021,2000,g  6.5,8.0
# From MPC 75718
122P/de Vico,e,84.8001,79.5367,13.0127,17.62908,0.0133156,0.96226158,123.2692,01/17.0/2021,2000,g  7.5,5.2
# From MPC114608
123P/West-Hartley,e,15.3087,46.3051,103.6188,3.870759,0.1294225,0.44798568,92.0809,01/17.0/2021,2000,g  4.0,10.0
# From MPEC 2020-SI8
124P/Mrkos,e,31.5132,0.3598,183.8963,3.318815,0.1630157,0.50347983,43.2092,01/17.0/2021,2000,g 13.5,2.8
# From MPEC 2015-M77
125P/Spacewatch,e,9.9867,153.1543,87.2345,3.125524,0.1783692,0.51286741,155.7811,01/17.0/2021,2000,g  9.0,4.0
# From MPC 66205
126P/IRAS,e,45.8631,357.8568,356.5119,5.641032,0.0735641,0.69618038,293.8364,01/17.0/2021,2000,g  9.0,4.0
# From MPC 84321
127P/Holt-Olmstead,e,14.2972,13.6421,6.5033,3.450395,0.1537804,0.35985442,272.1625,01/17.0/2021,2000,g 11.0,6.0
# From MPC 89014
128P/Shoemaker-Holt,e,4.3668,214.2946,210.3342,4.492970,0.1034913,0.32055857,152.0016,01/17.0/2021,2000,g  8.5,4.0
# From MPEC 2019-TG9
129P/Shoemaker-Levy,e,3.4426,184.8868,307.9638,4.282433,0.1112162,0.08395173,283.6789,01/17.0/2021,2000,g 11.0,4.0
# From MPC 78188
130P/McNaught-Hughes,e,6.0632,70.2353,245.9872,3.383860,0.1583381,0.46135119,172.6748,01/17.0/2021,2000,g 10.0,6.0
# From MPC102101
131P/Mueller,e,7.3543,214.1648,179.0315,3.681063,0.1395546,0.34377065,101.0072,01/17.0/2021,2000,g 11.0,4.0
# From MPEC 2020-HN5
132P/Helin-Roman-Alu,e,5.3794,174.0358,216.3581,3.887791,0.1285730,0.56514520,321.4097,01/17.0/2021,2000,g 11.0,6.0
# From MPC 94676
133P/Elst-Pizarro,e,1.3891,160.1161,131.7844,3.164313,0.1750995,0.15705579,148.5339,01/17.0/2021,2000,g 15.4,2.0
# From MPC 89012
134P/Kowal-Vavrova,e,4.3416,202.0776,18.8830,6.259178,0.0629402,0.58636653,153.2069,01/17.0/2021,2000,g 11.5,4.0
# From MPEC 2015-E14
135P/Shoemaker-Levy,e,6.0615,213.0359,22.2756,3.803722,0.1328590,0.29540016,300.8577,01/17.0/2021,2000,g  9.0,4.0
# From MPEC 2020-W26
136P/Mueller,e,9.4242,137.4470,224.8865,4.194270,0.1147412,0.29252611,194.0223,01/17.0/2021,2000,g 11.0,4.0
# From MPEC 2020-HN5
137P/Shoemaker-Levy,e,4.8535,233.0478,141.0192,4.520534,0.1025462,0.57337971,78.4898,01/17.0/2021,2000,g 11.0,4.0
# From MPEC 2016-U66
138P/Shoemaker-Levy,e,10.0911,309.3321,95.5565,3.622644,0.1429439,0.53037141,89.3695,01/17.0/2021,2000,g 15.0,6.0
# From MPEC 2020-HN5
139P/Vaisala-Oterma,e,2.3336,242.1841,165.7461,4.523540,0.1024440,0.24656656,116.2264,01/17.0/2021,2000,g  9.5,4.0
# From MPEC 2015-E14
140P/Bowell-Skiff,e,3.8310,343.2947,172.8959,6.432397,0.0604150,0.69132958,120.2863,01/17.0/2021,2000,g 11.5,6.0
# From MPEC 2021-AJ0
141P/Machholz,e,13.9451,241.8488,153.5449,3.056744,0.1844232,0.73568904,5.8515,01/17.0/2021,2000,g 12.0,12.0
# From MPC 95735
141P-H/Machholz,e,12.8431,246.0900,149.4500,3.008012,0.1889230,0.74682218,359.9270,08/24.0/2015,2000,g 18.5,4.0
# From MPC 71683
142P/Ge-Wang,e,12.2464,175.9415,173.9597,5.007780,0.0879501,0.49819025,349.8283,01/17.0/2021,2000,g  9.0,4.0
# From MPEC 2021-AJ0
143P/Kowal-Mrkos,e,4.6973,245.2480,320.4388,4.284065,0.1111527,0.41064342,109.7474,01/17.0/2021,2000,g 13.5,2.0
# From MPC104795
144P/Kushida,e,3.9522,243.4835,216.1524,3.815746,0.1322315,0.63709931,214.0778,01/17.0/2021,2000,g  8.5,8.0
# From MPC108598
145P/Shoemaker-Levy,e,11.2698,26.7879,10.2498,4.139261,0.1170361,0.54119226,144.4160,01/17.0/2021,2000,g 13.5,4.0
# From MPC100284
146P/Shoemaker-LINEAR,e,23.0897,53.4091,316.9272,4.032804,0.1217008,0.64681177,202.1821,01/17.0/2021,2000,g 15.0,4.0
# From MPC 75720
147P/Kushida-Muramatsu,e,2.3493,93.2165,350.6190,3.972735,0.1244714,0.23529157,228.8065,01/17.0/2021,2000,g 14.0,4.0
# From MPEC 2014-R70
148P/Anderson-LINEAR,e,3.6630,89.3810,7.5016,3.632978,0.1423344,0.54991933,287.0955,01/17.0/2021,2000,g  9.0,4.0
# From MPC 75720
149P/Mueller,e,30.0035,144.9764,44.4495,4.337008,0.1091236,0.39243289,76.0985,01/17.0/2021,2000,g  8.0,8.0
# From MPC 75720
150P/LONEOS,e,18.5069,272.3969,245.5573,3.879855,0.1289677,0.54676353,211.3656,01/17.0/2021,2000,g 13.5,4.0
# From MPEC 2015-Q71
151P/Helin,e,4.7279,143.1535,216.0465,5.764063,0.0712215,0.57327062,137.1761,01/17.0/2021,2000,g 10.0,6.0
# From MPC 79346
152P/Helin-Lawrence,e,9.8797,91.8642,163.8714,4.479404,0.1039618,0.30898809,322.4329,01/17.0/2021,2000,g 11.5,4.0
# From MPC 46101
153P/Ikeya-Zhang,e,27.7644,93.1012,35.1557,50.75020,0.0027261,0.98962887,0.0000,03/07.9597/2002,2000,g  9.0,4.0
# From MPC 87068
154P/Brewington,e,17.6318,343.0287,47.8383,4.803311,0.0936253,0.67541936,243.4956,01/17.0/2021,2000,g  2.5,12.0
# From MPEC 2020-SI8
155P/Shoemaker,e,6.3961,97.1956,14.6396,6.581594,0.0583724,0.72627996,25.0449,01/17.0/2021,2000,g 10.0,4.8
# From MPEC 2021-AJ0
156P/Russell-LINEAR,e,17.2625,35.3688,0.4299,3.460264,0.1531229,0.61476306,9.2064,01/17.0/2021,2000,g 15.5,2.0
# From MPC104795
157P/Tritton,e,12.5682,287.8566,154.9176,3.547336,0.1475199,0.56081174,271.6743,01/17.0/2021,2000,g 10.0,4.0
# From MPEC 2016-K18
158P/Kowal-LINEAR,e,7.9940,135.5649,175.4977,4.925850,0.0901534,0.02586796,346.5047,01/17.0/2021,2000,g  9.0,4.0
# From MPEC 2020-L06
159P/LONEOS,e,23.4631,54.9923,4.5942,5.855249,0.0695642,0.38159172,67.5518,01/17.0/2021,2000,g 10.0,4.0
# From MPEC 2019-TG9
